STARLINK-11350 [DTC]    
1 61540U 24184J   25352.07407287 -.00001548  00000+0 -79131-5 0  9992
2 61540  53.1611 278.2330 0001500  73.3954 286.7229 15.69707751 67600
STARLINK-11357 [DTC]    
1 61541U 24184K   25352.06926869 -.00001187  00000+0 -49397-5 0  9994
2 61541  53.1593 278.9329 0001367  85.1849 274.9325 15.69703524 67598
STARLINK-11322 [DTC]    
1 61542U 24184L   25352.19169234  .00000195  00000+0  64675-5 0  9996
2 61542  53.1593 278.2730 0001244  94.6679 265.4481 15.69716817 68675
STARLINK-11364 [DTC]    
1 61543U 24184M   25352.18678706  .00000061  00000+0  53647-5 0  9994
2 61543  53.1597 278.2423 0001516 112.5185 247.5994 15.69716616 67613
STARLINK-11349 [DTC]    
1 61544U 24184N   25352.18188312  .00000392  00000+0  80932-5 0  9998
2 61544  53.1596 278.2067 0001370  83.5329 276.5845 15.69715435 67617
STARLINK-32406          
1 61545U 24184P   25352.29365835 -.00000336  00000+0  76662-6 0  9993
2 61545  53.1618  32.1032 0000966 103.4515 256.6593 15.30191890 66047
STARLINK-32445          
1 61546U 24184Q   25352.11037963  .00000325  00000+0  23086-4 0  9990
2 61546  53.1623  33.1008 0001021  75.3265 284.7849 15.30189727 66019
STARLINK-32411          
1 61547U 24184R   25352.29049098  .00000029  00000+0  13099-4 0  9996
2 61547  53.1616  32.0849 0000856  99.3686 260.7412 15.30195995 66048
STARLINK-32424          
1 61548U 24184S   25351.84595690 -.00000056  00000+0  10252-4 0  9990
2 61548  53.1630  34.2926 0001228  87.8939 272.2203 15.30190300 65974
STARLINK-32389          
1 61549U 24184T   25352.28732555 -.00000105  00000+0  85698-5 0  9995
2 61549  53.1608  32.0698 0000787 102.4484 257.6605 15.30195808 66040
STARLINK-32476          
1 61550U 24184U   25352.10405044 -.00001524  00000+0 -39362-4 0  9991
2 61550  53.1615  33.0578 0000969  73.1692 286.9415 15.30190415 66015
STARLINK-32366          
1 61551U 24184V   25352.11356476  .00022084  00000+0  75823-3 0  9990
2 61551  53.1614  33.1186 0000978 147.2305 212.8756 15.30084126 66012
STARLINK-11356 [DTC]    
1 61574U 24187A   25352.21615599 -.00000550  00000+0  32052-6 0  9998
2 61574  53.1583 337.9182 0001331  57.9601 302.1546 15.69707036 67984
STARLINK-11376 [DTC]    
1 61575U 24187B   25352.21124330  .00000078  00000+0  55003-5 0  9991
2 61575  53.1579 337.8828 0000848  74.6237 285.4875 15.69709704 67903
STARLINK-11372 [DTC]    
1 61576U 24187C   25352.27001157  .00000002  00000+0  48835-5 0  9991
2 61576  53.1599 337.5368 0001707  73.1362 286.9843 15.69707861 67969
STARLINK-11375 [DTC]    
1 61577U 24187D   25352.26509748 -.00001041  00000+0 -37317-5 0  9999
2 61577  53.1590 337.5023 0001205  92.2140 267.9015 15.69720323 67966
