[{"OBJECT_NAME":"STARLINK-11350 [DTC]","OBJECT_ID":"2024-184J","EPOCH":"2025-12-18T01:46:39.895968","MEAN_MOTION":15.69707751,"ECCENTRICITY":0.00015002,"INCLINATION":53.1611,"RA_OF_ASC_NODE":278.233,"ARG_OF_PERICENTER":73.3954,"MEAN_ANOMALY":286.7229,"EPHEMERIS_TYPE":0,"CLASSIFICATION_TYPE":"U","NORAD_CAT_ID":61540,"ELEMENT_SET_NO":999,"REV_AT_EPOCH":6760,"BSTAR":-7.91306e-6,"MEAN_MOTION_DOT":-1.548e-5,"MEAN_MOTION_DDOT":0},{"OBJECT_NAME":"STARLINK-11357 [DTC]","OBJECT_ID":"2024-184K","EPOCH":"2025-12-18T01:39:44.814816","MEAN_MOTION":15.69703524,"ECCENTRICITY":0.00013672,"INCLINATION":53.1593,"RA_OF_ASC_NODE":278.9329,"ARG_OF_PERICENTER":85.1849,"MEAN_ANOMALY":274.9325,"EPHEMERIS_TYPE":0,"CLASSIFICATION_TYPE":"U","NORAD_CAT_ID":61541,"ELEMENT_SET_NO":999,"REV_AT_EPOCH":6759,"BSTAR":-4.939726e-6,"MEAN_MOTION_DOT":-1.187e-5,"MEAN_MOTION_DDOT":0},{"OBJECT_NAME":"STARLINK-11322 [DTC]","OBJECT_ID":"2024-184L","EPOCH":"2025-12-18T04:36:02.218176","MEAN_MOTION":15.69716817,"ECCENTRICITY":0.00012444,"INCLINATION":53.1593,"RA_OF_ASC_NODE":278.273,"ARG_OF_PERICENTER":94.6679,"MEAN_ANOMALY":265.4481,"EPHEMERIS_TYPE":0,"CLASSIFICATION_TYPE":"U","NORAD_CAT_ID":61542,"ELEMENT_SET_NO":999,"REV_AT_EPOCH":6867,"BSTAR":6.46752e-6,"MEAN_MOTION_DOT":1.95e-6,"MEAN_MOTION_DDOT":0},{"OBJECT_NAME":"STARLINK-11364 [DTC]","OBJECT_ID":"2024-184M","EPOCH":"2025-12-18T04:28:58.401984","MEAN_MOTION":15.69716616,"ECCENTRICITY":0.00015168,"INCLINATION":53.1597,"RA_OF_ASC_NODE":278.2423,"ARG_OF_PERICENTER":112.5185,"MEAN_ANOMALY":247.5994,"EPHEMERIS_TYPE":0,"CLASSIFICATION_TYPE":"U","NORAD_CAT_ID":61543,"ELEMENT_SET_NO":999,"REV_AT_EPOCH":6761,"BSTAR":5.364682e-6,"MEAN_MOTION_DOT":6.1e-7,"MEAN_MOTION_DDOT":0},{"OBJECT_NAME":"STARLINK-11349 [DTC]","OBJECT_ID":"2024-184N","EPOCH":"2025-12-18T04:21:54.701568","MEAN_MOTION":15.69715435,"ECCENTRICITY":0.00013706,"INCLINATION":53.1596,"RA_OF_ASC_NODE":278.2067,"ARG_OF_PERICENTER":83.5329,"MEAN_ANOMALY":276.5845,"EPHEMERIS_TYPE":0,"CLASSIFICATION_TYPE":"U","NORAD_CAT_ID":61544,"ELEMENT_SET_NO":999,"REV_AT_EPOCH":6761,"BSTAR":8.093236e-6,"MEAN_MOTION_DOT":3.92e-6,"MEAN_MOTION_DDOT":0},{"OBJECT_NAME":"STARLINK-32406","OBJECT_ID":"2024-184P","EPOCH":"2025-12-18T07:02:52.081440","MEAN_MOTION":15.3019189,"ECCENTRICITY":9.663e-5,"INCLINATION":53.1618,"RA_OF_ASC_NODE":32.1032,"ARG_OF_PERICENTER":103.4515,"MEAN_ANOMALY":256.6593,"EPHEMERIS_TYPE":0,"CLASSIFICATION_TYPE":"U","NORAD_CAT_ID":61545,"ELEMENT_SET_NO":999,"REV_AT_EPOCH":6604,"BSTAR":7.6662e-7,"MEAN_MOTION_DOT":-3.36e-6,"MEAN_MOTION_DDOT":0},{"OBJECT_NAME":"STARLINK-32445","OBJECT_ID":"2024-184Q","EPOCH":"2025-12-18T02:38:56.800032","MEAN_MOTION":15.30189727,"ECCENTRICITY":0.00010219,"INCLINATION":53.1623,"RA_OF_ASC_NODE":33.1008,"ARG_OF_PERICENTER":75.3265,"MEAN_ANOMALY":284.7849,"EPHEMERIS_TYPE":0,"CLASSIFICATION_TYPE":"U","NORAD_CAT_ID":61546,"ELEMENT_SET_NO":999,"REV_AT_EPOCH":6601,"BSTAR":2.3085821e-5,"MEAN_MOTION_DOT":3.25e-6,"MEAN_MOTION_DDOT":0},{"OBJECT_NAME":"STARLINK-32411","OBJECT_ID":"2024-184R","EPOCH":"2025-12-18T06:58:18.420672","MEAN_MOTION":15.30195995,"ECCENTRICITY":8.563e-5,"INCLINATION":53.1616,"RA_OF_ASC_NODE":32.0849,"ARG_OF_PERICENTER":99.3686,"MEAN_ANOMALY":260.7412,"EPHEMERIS_TYPE":0,"CLASSIFICATION_TYPE":"U","NORAD_CAT_ID":61547,"ELEMENT_SET_NO":999,"REV_AT_EPOCH":6604,"BSTAR":1.30986e-5,"MEAN_MOTION_DOT":2.9e-7,"MEAN_MOTION_DDOT":0},{"OBJECT_NAME":"STARLINK-32424","OBJECT_ID":"2024-184S","EPOCH":"2025-12-17T20:18:10.676160","MEAN_MOTION":15.301903,"ECCENTRICITY":0.00012288,"INCLINATION":53.163,"RA_OF_ASC_NODE":34.2926,"ARG_OF_PERICENTER":87.8939,"MEAN_ANOMALY":272.2203,"EPHEMERIS_TYPE":0,"CLASSIFICATION_TYPE":"U","NORAD_CAT_ID":61548,"ELEMENT_SET_NO":999,"REV_AT_EPOCH":6597,"BSTAR":1.0252023e-5,"MEAN_MOTION_DOT":-5.6e-7,"MEAN_MOTION_DDOT":0},{"OBJECT_NAME":"STARLINK-32389","OBJECT_ID":"2024-184T","EPOCH":"2025-12-18T06:53:44.927520","MEAN_MOTION":15.30195808,"ECCENTRICITY":7.875e-5,"INCLINATION":53.1608,"RA_OF_ASC_NODE":32.0698,"ARG_OF_PERICENTER":102.4484,"MEAN_ANOMALY":257.6605,"EPHEMERIS_TYPE":0,"CLASSIFICATION_TYPE":"U","NORAD_CAT_ID":61549,"ELEMENT_SET_NO":999,"REV_AT_EPOCH":6604,"BSTAR":8.569752e-6,"MEAN_MOTION_DOT":-1.05e-6,"MEAN_MOTION_DDOT":0},{"OBJECT_NAME":"STARLINK-32476","OBJECT_ID":"2024-184U","EPOCH":"2025-12-18T02:29:49.958016","MEAN_MOTION":15.30190415,"ECCENTRICITY":9.69e-5,"INCLINATION":53.1615,"RA_OF_ASC_NODE":33.0578,"ARG_OF_PERICENTER":73.1692,"MEAN_ANOMALY":286.9415,"EPHEMERIS_TYPE":0,"CLASSIFICATION_TYPE":"U","NORAD_CAT_ID":61550,"ELEMENT_SET_NO":999,"REV_AT_EPOCH":6601,"BSTAR":-3.9361742e-5,"MEAN_MOTION_DOT":-1.524e-5,"MEAN_MOTION_DDOT":0},{"OBJECT_NAME":"STARLINK-32366","OBJECT_ID":"2024-184V","EPOCH":"2025-12-18T02:43:31.995264","MEAN_MOTION":15.30084126,"ECCENTRICITY":9.789e-5,"INCLINATION":53.1614,"RA_OF_ASC_NODE":33.1186,"ARG_OF_PERICENTER":147.2305,"MEAN_ANOMALY":212.8756,"EPHEMERIS_TYPE":0,"CLASSIFICATION_TYPE":"U","NORAD_CAT_ID":61551,"ELEMENT_SET_NO":999,"REV_AT_EPOCH":6601,"BSTAR":0.0007582345,"MEAN_MOTION_DOT":0.00022084,"MEAN_MOTION_DDOT":0},{"OBJECT_NAME":"STARLINK-11356 [DTC]","OBJECT_ID":"2024-187A","EPOCH":"2025-12-18T05:11:15.877536","MEAN_MOTION":15.69707036,"ECCENTRICITY":0.00013319,"INCLINATION":53.1583,"RA_OF_ASC_NODE":337.9182,"ARG_OF_PERICENTER":57.9601,"MEAN_ANOMALY":302.1546,"EPHEMERIS_TYPE":0,"CLASSIFICATION_TYPE":"U","NORAD_CAT_ID":61574,"ELEMENT_SET_NO":999,"REV_AT_EPOCH":6798,"BSTAR":3.20525e-7,"MEAN_MOTION_DOT":-5.5e-6,"MEAN_MOTION_DDOT":0},{"OBJECT_NAME":"STARLINK-11376 [DTC]","OBJECT_ID":"2024-187B","EPOCH":"2025-12-18T05:04:11.421120","MEAN_MOTION":15.69709704,"ECCENTRICITY":8.484e-5,"INCLINATION":53.1579,"RA_OF_ASC_NODE":337.8828,"ARG_OF_PERICENTER":74.6237,"MEAN_ANOMALY":285.4875,"EPHEMERIS_TYPE":0,"CLASSIFICATION_TYPE":"U","NORAD_CAT_ID":61575,"ELEMENT_SET_NO":999,"REV_AT_EPOCH":6790,"BSTAR":5.500331e-6,"MEAN_MOTION_DOT":7.8e-7,"MEAN_MOTION_DDOT":0},{"OBJECT_NAME":"STARLINK-11372 [DTC]","OBJECT_ID":"2024-187C","EPOCH":"2025-12-18T06:28:48.999648","MEAN_MOTION":15.69707861,"ECCENTRICITY":0.00017073,"INCLINATION":53.1599,"RA_OF_ASC_NODE":337.5368,"ARG_OF_PERICENTER":73.1362,"MEAN_ANOMALY":286.9843,"EPHEMERIS_TYPE":0,"CLASSIFICATION_TYPE":"U","NORAD_CAT_ID":61576,"ELEMENT_SET_NO":999,"REV_AT_EPOCH":6796,"BSTAR":4.883546e-6,"MEAN_MOTION_DOT":2.0e-8,"MEAN_MOTION_DDOT":0},{"OBJECT_NAME":"STARLINK-11375 [DTC]","OBJECT_ID":"2024-187D","EPOCH":"2025-12-18T06:21:44.422272","MEAN_MOTION":15.69720323,"ECCENTRICITY":0.00012054,"INCLINATION":53.159,"RA_OF_ASC_NODE":337.5023,"ARG_OF_PERICENTER":92.214,"MEAN_ANOMALY":267.9015,"EPHEMERIS_TYPE":0,"CLASSIFICATION_TYPE":"U","NORAD_CAT_ID":61577,"ELEMENT_SET_NO":999,"REV_AT_EPOCH":6796,"BSTAR":-3.731736e-6,"MEAN_MOTION_DOT":-1.041e-5,"MEAN_MOTION_DDOT":0}]
